     2.11           N: GPS NAV DATA                         RINEX VERSION / TYPE
teqc  2018Dec12     gpsops              20220104 01:04:08UTCPGM / RUN BY / DATE
Linux 2.6.32-573.12.1.x86_64|x86_64|gcc -static|Linux 64|=+ COMMENT
CHPI                                    MARKER NAME         COMMENT
41609M003                               MARKER NUMBER       COMMENT
4164613.9484 -4162456.9866 -2445028.7316                    COMMENT
                                                            COMMENT
This data is provided as a public service by NASA/JPL.      COMMENT
No warranty is expressed or implied regarding suitability   COMMENT
for use.  For further information, contact:                 COMMENT
Dave Stowers, NASA/JPL m/s 238-600                          COMMENT
4800 Oak Grove Drive, Pasadena CA 91109 USA                 COMMENT
                                                            END OF HEADER
32 22  1  4  0  0  0.0-4.497589543462D-05-5.798028723802D-12 0.000000000000D+00
    9.600000000000D+01-8.906250000000D+00 4.377325190307D-09 2.406184520729D+00
   -3.427267074585D-07 5.372691666707D-03 1.010671257973D-05 5.153761211395D+03
    1.728000000000D+05-4.097819328308D-08 9.154294320646D-01-1.750886440277D-07
    9.577009210246D-01 1.817187500000D+02-2.380644106926D+00-7.752108620726D-09
    7.886042771050D-10 1.000000000000D+00 2.191000000000D+03 0.000000000000D+00
    2.800000000000D+00 0.000000000000D+00 4.656612873077D-10 9.600000000000D+01
    1.656180000000D+05 4.000000000000D+00
 9 22  1  4  0  0  0.0-3.589270636439D-04 1.023181539495D-12 0.000000000000D+00
    2.000000000000D+01-5.562500000000D+00 4.534117435619D-09 2.113071942957D+00
   -2.551823854446D-07 2.353480784222D-03 1.029483973980D-05 5.153643808365D+03
    1.728000000000D+05 1.117587089539D-08 9.044152959330D-01 7.636845111847D-08
    9.538378239740D-01 1.760000000000D+02 1.857101272339D+00-7.826397429439D-09
    7.986046936624D-10 1.000000000000D+00 2.191000000000D+03 0.000000000000D+00
    2.000000000000D+00 0.000000000000D+00 1.396983861923D-09 2.000000000000D+01
    1.656180000000D+05 4.000000000000D+00
16 22  1  4  0  0  0.0-4.504513926804D-04-5.684341886081D-12 0.000000000000D+00
    6.000000000000D+01 5.140625000000D+01 4.052668809923D-09 2.583164945749D+00
    2.577900886536D-06 1.258623553440D-02 1.204013824463D-05 5.153589088440D+03
    1.728000000000D+05-1.024454832077D-07 3.107556711696D+00-1.527369022369D-07
    9.712385133083D-01 1.528125000000D+02 6.918644186558D-01-7.424237820734D-09
   -5.328793394206D-10 1.000000000000D+00 2.191000000000D+03 0.000000000000D+00
    2.000000000000D+00 0.000000000000D+00-1.024454832077D-08 6.000000000000D+01
    1.656180000000D+05 4.000000000000D+00
26 22  1  3 23 59 44.0 1.711533404887D-04 3.524291969370D-12 0.000000000000D+00
    1.100000000000D+01 2.168750000000D+01 4.906632952386D-09-2.713348436894D+00
    1.031905412674D-06 6.732452544384D-03 1.161172986031D-05 5.153681333542D+03
    1.727840000000D+05-1.192092895508D-07 2.966603021621D+00-9.499490261078D-08
    9.394736434768D-01 1.467187500000D+02 3.384964585933D-01-7.947473901331D-09
   -5.968105738417D-10 1.000000000000D+00 2.191000000000D+03 0.000000000000D+00
    2.000000000000D+00 0.000000000000D+00 6.984919309616D-09 1.100000000000D+01
    1.691280000000D+05 4.000000000000D+00
 7 22  1  4  0  0  0.0 2.981880679727D-04 3.979039320257D-12 0.000000000000D+00
    2.700000000000D+01-6.968750000000D+00 5.253790270024D-09-1.173820737637D+00
   -1.341104507446D-07 1.539128459990D-02 4.872679710388D-06 5.153692096710D+03
    1.728000000000D+05 3.539025783539D-07 1.976780365065D+00 2.011656761169D-07
    9.505972175840D-01 2.750937500000D+02-2.297511702413D+00-8.238557454701D-09
   -9.500395729616D-11 1.000000000000D+00 2.191000000000D+03 0.000000000000D+00
    2.000000000000D+00 0.000000000000D+00-1.117587089539D-08 2.700000000000D+01
    1.695480000000D+05 4.000000000000D+00
 6 22  1  4  0  0  0.0 1.608263701200D-04 1.068656274583D-11 0.000000000000D+00
    5.300000000000D+01-3.200000000000D+01 4.244819670920D-09-1.356860746354D-01
   -1.631677150726D-06 2.580373897217D-03-7.860362529755D-07 5.153642585754D+03
    1.728000000000D+05-7.636845111847D-08-1.167421445343D+00-5.029141902924D-08
    9.857421303793D-01 4.096562500000D+02-1.013339129048D+00-8.402850012431D-09
   -1.685784505406D-10 1.000000000000D+00 2.191000000000D+03 0.000000000000D+00
    2.000000000000D+00 0.000000000000D+00 4.190951585770D-09 5.300000000000D+01
    1.709160000000D+05 4.000000000000D+00
